PROX-1                  
1 44339U 19036A   26200.24814462  .00005559  00000+0  51639-3 0  9993
2 44339  23.9941 259.9632 0006331  51.8823 308.2247 14.91294001378262
NPSAT1                  
1 44340U 19036B   26199.78483097  .00002667  00000+0  35284-3 0  9992
2 44340  24.0004  11.9174 0007260 208.4003 151.6098 14.74839385377168
FORMOSAT 7-3            
1 44343U 19036E   26199.63970874  .00002372  00000+0  12154-3 0  9997
2 44343  23.9998 322.0320 0000303 342.8292  17.2201 15.10009271388006
FORMOSAT 7-1            
1 44349U 19036L   26200.25076243  .00001329  00000+0  87891-4 0  9993
2 44349  23.9963 176.2081 0000773 168.3069 191.7450 14.96620592389464
FORMOSAT 7-4            
1 44350U 19036M   26200.27335853  .00001238  00000+0  80096-4 0  9991
2 44350  23.9969 238.1677 0001007 187.5336 172.5150 14.96617727388887
FORMOSAT 7-2            
1 44351U 19036N   26199.56232903  .00001336  00000+0  88483-4 0  9990
2 44351  23.9984 297.2778 0000579 157.1300 202.9227 14.96616698388294
FORMOSAT 7-6            
1 44353U 19036Q   26200.09528292  .00001390  00000+0  93058-4 0  9996
2 44353  23.9973 114.4892 0001338 110.7568 249.3077 14.96621305386608
FORMOSAT 7-5            
1 44358U 19036V   26200.27280239  .00001463  00000+0  99456-4 0  9996
2 44358  23.9994  52.0475 0000228 152.4231 207.6282 14.96601727387160
METEOR-M2 2             
1 44387U 19038A   26200.27682785  .00000140  00000+0  80610-4 0  9995
2 44387  98.9166 188.0390 0000471 355.5966   4.5208 14.24374049365862
GLOBAL-4                
1 44499U 19054E   26199.78247011  .00039633  00000+0  35966-3 0  9991
2 44499  45.0056  53.6787 0005928 219.3238 140.7230 15.67366282385313
ZY-1 02D                
1 44528U 19059A   26200.27534473  .00000088  00000+0  46311-4 0  9996
2 44528  98.6705 261.8506 0003010 282.1239  77.9608 14.35269379358944
TAURUS-1 (JINNIUZUO 1)  
1 44530U 19059C   26200.25343715  .00002244  00000+0  36297-3 0  9991
2 44530  98.6448   7.0822 0008346 201.7662 158.3190 14.72389397363362
ZHUHAI-1 03B            
1 44536U 19060C   26200.29477178  .00020131  00000+0  29247-3 0  9996
2 44536  97.5567 359.8434 0008684 190.9718 169.1348 15.55791694381310
ZHUHAI-1 03D            
1 44538U 19060E   26200.29529113  .00020704  00000+0  35116-3 0  9993
2 44538  97.5405 351.6830 0007765 176.2805 183.8506 15.51505119381057
ZHUHAI-1 03E            
1 44539U 19060F   26200.24470194  .00009663  00000+0  22874-3 0  9991
2 44539  97.5653 351.3344 0004475 257.1091 102.9656 15.42000864380707
GAOFEN-7                
1 44703U 19072A   26200.29648942  .00001835  00000+0  85901-4 0  9994
2 44703  97.5702 261.0522 0017027 297.0479  62.9018 15.20936129372526
JILIN-1 GAOFEN 2A       
1 44777U 19075A   26200.23956789  .00007277  00000+0  18407-3 0  9995
2 44777  97.4955 284.7962 0004790 338.2729  21.8312 15.40074980369814
NINGXIA-1 1             
1 44779U 19076A   26200.03377662 -.00000083  00000+0  30212-4 0  9991
2 44779  45.0068  37.5347 0011397 306.4978  53.4806 14.02042435342328
NINGXIA-1 5             
1 44783U 19076E   26200.25973616  .00000050  00000+0  11667-3 0  9996
2 44783  45.0065  35.8554 0011327 298.1657  61.8033 14.02091055342276
KL-ALPHA A              
1 44785U 19077A   26200.21796360 -.00000063  00000+0 -10735-3 0  9995
2 44785  88.9230 219.0615 0012051  26.2941 333.8822 13.56045698330076
CARTOSAT-3              
1 44804U 19081A   26200.23293741  .00002112  00000+0  10342-3 0  9998
2 44804  97.4282 261.5809 0012627  46.0651 314.1623 15.19200791368333
JILIN-1 GAOFEN 2B       
1 44836U 19086A   26200.25439237  .00002925  00000+0  13473-3 0  9992
2 44836  97.4865 272.0491 0013643 200.9945 159.0732 15.21024525365364
TIANQIN 1 (CAS-6)       
1 44879U 19093A   26200.27211188  .00000637  00000+0  62685-4 0  9990
2 44879  97.7809 283.8826 0009834 312.8938  47.1457 14.95570719356841
ETRSS-1                 
1 44880U 19093B   26200.26945840  .00001161  00000+0  10866-3 0  9996
2 44880  97.7828 284.3680 0009882 313.3108  46.7288 14.96022480356852
TIANYAN 01              
1 44881U 19093C   26200.28693081  .00000634  00000+0  77459-4 0  9992
2 44881  97.7514 271.7344 0013154 347.8970  12.1928 14.86564062356188
TIANYAN 02              
1 44882U 19093D   26200.29034663  .00003338  00000+0  23588-3 0  9996
2 44882  97.7930 295.3967 0012456 273.0819  86.8981 15.05554406357440
CBERS 4A                
1 44883U 19093E   26200.24043241  .00000397  00000+0  57550-4 0  9993
2 44883  98.0175 267.7063 0001725 128.9597 231.1770 14.81448933355825
WEILAI 1R               
1 44884U 19093F   26200.25793947  .00002025  00000+0  16367-3 0  9990
2 44884  97.7889 290.2038 0015204 294.3442  65.6194 15.00885103357234
