OBJECT_NAME,OBJECT_ID,EPOCH,MEAN_MOTION,ECCENTRICITY,INCLINATION,RA_OF_ASC_NODE,ARG_OF_PERICENTER,MEAN_ANOMALY,EPHEMERIS_TYPE,CLASSIFICATION_TYPE,NORAD_CAT_ID,ELEMENT_SET_NO,REV_AT_EPOCH,BSTAR,MEAN_MOTION_DOT,MEAN_MOTION_DDOT
PROX-1,2019-036A,2026-07-19T05:57:19.695168,14.91294001,.00063314,23.9941,259.9632,51.8823,308.2247,0,U,44339,999,37826,.51638709E-3,.5559E-4,0
NPSAT1,2019-036B,2026-07-18T18:50:09.395808,14.74839385,.00072602,24.0004,11.9174,208.4003,151.6098,0,U,44340,999,37716,.35283705E-3,.2667E-4,0
FORMOSAT 7-3,2019-036E,2026-07-18T15:21:10.835136,15.10009271,.0000303,23.9998,322.0320,342.8292,17.2201,0,U,44343,999,38800,.12154E-3,.2372E-4,0
FORMOSAT 7-1,2019-036L,2026-07-19T06:01:05.873952,14.96620592,.00007731,23.9963,176.2081,168.3069,191.7450,0,U,44349,999,38946,.87890576E-4,.1329E-4,0
FORMOSAT 7-4,2019-036M,2026-07-19T06:33:38.176992,14.96617727,.00010071,23.9969,238.1677,187.5336,172.5150,0,U,44350,999,38888,.80096374E-4,.1238E-4,0
FORMOSAT 7-2,2019-036N,2026-07-18T13:29:45.228192,14.96616698,.0000579,23.9984,297.2778,157.1300,202.9227,0,U,44351,999,38829,.88483E-4,.1336E-4,0
FORMOSAT 7-6,2019-036Q,2026-07-19T02:17:12.444288,14.96621305,.00013387,23.9973,114.4892,110.7568,249.3077,0,U,44353,999,38660,.93057954E-4,.139E-4,0
FORMOSAT 7-5,2019-036V,2026-07-19T06:32:50.126496,14.96601727,.00002285,23.9994,52.0475,152.4231,207.6282,0,U,44358,999,38716,.99456155E-4,.1463E-4,0
METEOR-M2 2,2019-038A,2026-07-19T06:38:37.926240,14.24374049,.00004712,98.9166,188.0390,355.5966,4.5208,0,U,44387,999,36586,.80610104E-4,.14E-5,0
GLOBAL-4,2019-054E,2026-07-18T18:46:45.417504,15.67366282,.0005928,45.0056,53.6787,219.3238,140.7230,0,U,44499,999,38531,.35966335E-3,.39633E-3,0
ZY-1 02D,2019-059A,2026-07-19T06:36:29.784672,14.35269379,.00030103,98.6705,261.8506,282.1239,77.9608,0,U,44528,999,35894,.46310963E-4,.88E-6,0
TAURUS-1 (JINNIUZUO 1),2019-059C,2026-07-19T06:04:56.969760,14.72389397,.00083463,98.6448,7.0822,201.7662,158.3190,0,U,44530,999,36336,.36296806E-3,.2244E-4,0
ZHUHAI-1 03B,2019-060C,2026-07-19T07:04:28.281792,15.55791694,.00086841,97.5567,359.8434,190.9718,169.1348,0,U,44536,999,38131,.29247458E-3,.20131E-3,0
ZHUHAI-1 03D,2019-060E,2026-07-19T07:05:13.153632,15.51505119,.00077656,97.5405,351.6830,176.2805,183.8506,0,U,44538,999,38105,.35116069E-3,.20704E-3,0
ZHUHAI-1 03E,2019-060F,2026-07-19T05:52:22.247616,15.42000864,.00044759,97.5653,351.3344,257.1091,102.9656,0,U,44539,999,38070,.2287366E-3,.9663E-4,0
GAOFEN-7,2019-072A,2026-07-19T07:06:56.685888,15.20936129,.00170274,97.5702,261.0522,297.0479,62.9018,0,U,44703,999,37252,.85900761E-4,.1835E-4,0
JILIN-1 GAOFEN 2A,2019-075A,2026-07-19T05:44:58.665696,15.40074980,.00047901,97.4955,284.7962,338.2729,21.8312,0,U,44777,999,36981,.18406949E-3,.7277E-4,0
NINGXIA-1 1,2019-076A,2026-07-19T00:48:38.299968,14.02042435,.00113976,45.0068,37.5347,306.4978,53.4806,0,U,44779,999,34232,.30211743E-4,-.83E-6,0
NINGXIA-1 5,2019-076E,2026-07-19T06:14:01.204224,14.02091055,.00113277,45.0065,35.8554,298.1657,61.8033,0,U,44783,999,34227,.11667132E-3,.5E-6,0
KL-ALPHA A,2019-077A,2026-07-19T05:13:52.055040,13.56045698,.0012051,88.9230,219.0615,26.2941,333.8822,0,U,44785,999,33007,-.10735381E-3,-.63E-6,0
CARTOSAT-3,2019-081A,2026-07-19T05:35:25.792224,15.19200791,.0012627,97.4282,261.5809,46.0651,314.1623,0,U,44804,999,36833,.10342078E-3,.2112E-4,0
JILIN-1 GAOFEN 2B,2019-086A,2026-07-19T06:06:19.500768,15.21024525,.00136438,97.4865,272.0491,200.9945,159.0732,0,U,44836,999,36536,.13472635E-3,.2925E-4,0
TIANQIN 1 (CAS-6),2019-093A,2026-07-19T06:31:50.466432,14.95570719,.00098341,97.7809,283.8826,312.8938,47.1457,0,U,44879,999,35684,.62684714E-4,.637E-5,0
ETRSS-1,2019-093B,2026-07-19T06:28:01.205760,14.96022480,.00098826,97.7828,284.3680,313.3108,46.7288,0,U,44880,999,35685,.10865648E-3,.1161E-4,0
TIANYAN 01,2019-093C,2026-07-19T06:53:10.821984,14.86564062,.0013154,97.7514,271.7344,347.8970,12.1928,0,U,44881,999,35618,.77459086E-4,.634E-5,0
TIANYAN 02,2019-093D,2026-07-19T06:58:05.948832,15.05554406,.00124562,97.7930,295.3967,273.0819,86.8981,0,U,44882,999,35744,.23587887E-3,.3338E-4,0
CBERS 4A,2019-093E,2026-07-19T05:46:13.360224,14.81448933,.00017259,98.0175,267.7063,128.9597,231.1770,0,U,44883,999,35582,.57550254E-4,.397E-5,0
WEILAI 1R,2019-093F,2026-07-19T06:11:25.970208,15.00885103,.00152044,97.7889,290.2038,294.3442,65.6194,0,U,44884,999,35723,.1636688E-3,.2025E-4,0
